{
    "links": {
        "self": "http://www.neowsapp.com/rest/v1/neo/3776032?api_key=iIulBulltgU6a56xZRHN4H3l9WmuAYTsLGpBGhQ2"
    },
    "id": "3776032",
    "neo_reference_id": "3776032",
    "name": "(2017 MF3)",
    "designation": "2017 MF3",
    "nasa_jpl_url": "http://ssd.jpl.nasa.gov/sbdb.cgi?sstr=3776032",
    "absolute_magnitude_h": 26.0,
    "estimated_diameter": {
        "kilometers": {
            "estimated_diameter_min": 0.0167708462,
            "estimated_diameter_max": 0.0375007522
        },
        "meters": {
            "estimated_diameter_min": 16.7708462163,
            "estimated_diameter_max": 37.5007521798
        },
        "miles": {
            "estimated_diameter_min": 0.0104209175,
            "estimated_diameter_max": 0.0233018799
        },
        "feet": {
            "estimated_diameter_min": 55.0224631002,
            "estimated_diameter_max": 123.0339677816
        }
    },
    "is_potentially_hazardous_asteroid": false,
    "close_approach_data": [
        {
            "close_approach_date": "2017-06-15",
            "close_approach_date_full": "2017-Jun-15 15:03",
            "epoch_date_close_approach": 1497538980000,
            "relative_velocity": {
                "kilometers_per_second": "10.0181680835",
                "kilometers_per_hour": "36065.4051004664",
                "miles_per_hour": "22409.6401858982"
            },
            "miss_distance": {
                "astronomical": "0.0155786248",
                "lunar": "6.0600850472",
                "kilometers": "2330529.087609176",
                "miles": "1448123.6246555888"
            },
            "orbiting_body": "Earth"
        },
        {
            "close_approach_date": "2038-07-11",
            "close_approach_date_full": "2038-Jul-11 21:23",
            "epoch_date_close_approach": 2162496180000,
            "relative_velocity": {
                "kilometers_per_second": "19.1045036456",
                "kilometers_per_hour": "68776.2131242244",
                "miles_per_hour": "42734.8642048827"
            },
            "miss_distance": {
                "astronomical": "0.3107709652",
                "lunar": "120.8899054628",
                "kilometers": "46490674.451764124",
                "miles": "28887965.5515639512"
            },
            "orbiting_body": "Earth"
        },
        {
            "close_approach_date": "2045-07-19",
            "close_approach_date_full": "2045-Jul-19 11:07",
            "epoch_date_close_approach": 2384075220000,
            "relative_velocity": {
                "kilometers_per_second": "23.2040504638",
                "kilometers_per_hour": "83534.5816695029",
                "miles_per_hour": "51905.1404823642"
            },
            "miss_distance": {
                "astronomical": "0.453897717",
                "lunar": "176.566211913",
                "kilometers": "67902131.66106279",
                "miles": "42192428.125294902"
            },
            "orbiting_body": "Earth"
        }
    ],
    "orbital_data": {
        "orbit_id": "1",
        "orbit_determination_date": "2017-06-26 06:20:08",
        "first_observation_date": "2017-06-22",
        "last_observation_date": "2017-06-25",
        "data_arc_in_days": 3,
        "observations_used": 10,
        "orbit_uncertainty": "8",
        "minimum_orbit_intersection": ".0144232",
        "jupiter_tisserand_invariant": "3.973",
        "epoch_osculation": "2457927.5",
        "eccentricity": ".4734284465535316",
        "semi_major_axis": "1.761385154248294",
        "inclination": "6.271905819267031",
        "ascending_node_longitude": "92.11701494900908",
        "orbital_period": "853.8467392941584",
        "perihelion_distance": ".9274953168900716",
        "perihelion_argument": "128.6426172476221",
        "aphelion_distance": "2.595274991606517",
        "perihelion_time": "2457885.125440602828",
        "mean_anomaly": "17.86601819852647",
        "mean_motion": ".4216213325328125",
        "equinox": "J2000",
        "orbit_class": {
            "orbit_class_type": "APO",
            "orbit_class_description": "Near-Earth asteroid orbits which cross the Earth’s orbit similar to that of 1862 Apollo",
            "orbit_class_range": "a (semi-major axis) > 1.0 AU; q (perihelion) < 1.017 AU"
        }
    },
    "is_sentry_object": false
}